{"type": "FeatureCollection", "features": [ {"type": "Feature", "properties": {"norad_id": 35038, "name": "COSMOS 2251 DEB", "group": "cosmos-2251-debris", "lat": -56.222236479927204, "lon": -115.18815501410683, "alt_km": 879.8529998582999, "timestamp": "2025-12-14T09:36:23.433947+00:00", "meta": {"OBJECT_NAME": "COSMOS 2251 DEB", "OBJECT_ID": "1993-036AHB", "EPOCH": "2025-12-13T12:34:35.080032", "MEAN_MOTION": 14.25157492, "ECCENTRICITY": 0.01139033, "INCLINATION": 74.1075, "RA_OF_ASC_NODE": 41.1754, "ARG_OF_PERICENTER": 24.7364, "MEAN_ANOMALY": 41.8941, "EPHEMERIS_TYPE": 0, "CLASSIFICATION_TYPE": "U", "NORAD_CAT_ID": 35038, "ELEMENT_SET_NO": 999, "REV_AT_EPOCH": 85580, "BSTAR": 0.0019492538, "MEAN_MOTION_DOT": 4.875e-05, "MEAN_MOTION_DDOT": 0}, "tle": {"line1": "1 35038U 93036AHB 25347.52401713  .00004875  00000+0  19493-2 0  9995", "line2": "2 35038  74.1075  41.1754 0113903  24.7364  41.8941 14.25157492855803"}}, "geometry": {"type": "Point", "coordinates": [-115.18815501410683, -56.222236479927204]}}, {"type": "Feature", "properties": {"norad_id": 35043, "name": "COSMOS 2251 DEB", "group": "cosmos-2251-debris", "lat": 29.27437247876535, "lon": 51.59142593136237, "alt_km": 687.8183811461358, "timestamp": "2025-12-14T09:36:23.433957+00:00", "meta": {"OBJECT_NAME": "COSMOS 2251 DEB", "OBJECT_ID": "1993-036AHG", "EPOCH": "2025-12-12T10:19:31.767456", "MEAN_MOTION": 14.76940501, "ECCENTRICITY": 0.00964725, "INCLINATION": 73.9505, "RA_OF_ASC_NODE": 46.1859, "ARG_OF_PERICENTER": 255.5688, "MEAN_ANOMALY": 103.4766, "EPHEMERIS_TYPE": 0, "CLASSIFICATION_TYPE": "U", "NORAD_CAT_ID": 35043, "ELEMENT_SET_NO": 999, "REV_AT_EPOCH": 67414, "BSTAR": 0.0053994821, "MEAN_MOTION_DOT": 0.00041249, "MEAN_MOTION_DDOT": 0}, "tle": {"line1": "1 35043U 93036AHG 25346.43022879  .00041249  00000+0  53995-2 0  9993", "line2": "2 35043  73.9505  46.1859 0096472 255.5688 103.4766 14.76940501674142"}}, "geometry": {"type": "Point", "coordinates": [51.59142593136237, 29.27437247876535]}}, {"type": "Feature", "properties": {"norad_id": 35045, "name": "COSMOS 2251 DEB", "group": "cosmos-2251-debris", "lat": 57.482057426503275, "lon": -157.51113025041028, "alt_km": 1019.0141701154726, "timestamp": "2025-12-14T09:36:23.433967+00:00", "meta": {"OBJECT_NAME": "COSMOS 2251 DEB", "OBJECT_ID": "1993-036AHJ", "EPOCH": "2025-12-12T12:27:23.258016", "MEAN_MOTION": 14.00384321, "ECCENTRICITY": 0.01836, "INCLINATION": 73.7196, "RA_OF_ASC_NODE": 53.0934, "ARG_OF_PERICENTER": 295.1287, "MEAN_ANOMALY": 63.0895, "EPHEMERIS_TYPE": 0, "CLASSIFICATION_TYPE": "U", "NORAD_CAT_ID": 35045, "ELEMENT_SET_NO": 999, "REV_AT_EPOCH": 84640, "BSTAR": 0.00096523988, "MEAN_MOTION_DOT": 1.627e-05, "MEAN_MOTION_DDOT": 0}, "tle": {"line1": "1 35045U 93036AHJ 25346.51901919  .00001627  00000+0  96524-3 0  9997", "line2": "2 35045  73.7196  53.0934 0183600 295.1287  63.0895 14.00384321846407"}}, "geometry": {"type": "Point", "coordinates": [-157.51113025041028, 57.482057426503275]}}, {"type": "Feature", "properties": {"norad_id": 35060, "name": "COSMOS 2251 DEB", "group": "cosmos-2251-debris", "lat": -73.95110193438646, "lon": 156.97076478474492, "alt_km": 752.6803307420078, "timestamp": "2025-12-14T09:36:23.433978+00:00", "meta": {"OBJECT_NAME": "COSMOS 2251 DEB", "OBJECT_ID": "1993-036AHP", "EPOCH": "2025-12-12T09:42:56.373696", "MEAN_MOTION": 14.4159863, "ECCENTRICITY": 0.00185395, "INCLINATION": 74.0367, "RA_OF_ASC_NODE": 244.9485, "ARG_OF_PERICENTER": 331.3845, "MEAN_ANOMALY": 28.6291, "EPHEMERIS_TYPE": 0, "CLASSIFICATION_TYPE": "U", "NORAD_CAT_ID": 35060, "ELEMENT_SET_NO": 999, "REV_AT_EPOCH": 87237, "BSTAR": 0.00047553365, "MEAN_MOTION_DOT": 1.524e-05, "MEAN_MOTION_DDOT": 0}, "tle": {"line1": "1 35060U 93036AHP 25346.40481914  .00001524  00000+0  47553-3 0  9994", "line2": "2 35060  74.0367 244.9485 0018539 331.3845  28.6291 14.41598630872378"}}, "geometry": {"type": "Point", "coordinates": [156.97076478474492, -73.95110193438646]}}, {"type": "Feature", "properties": {"norad_id": 35061, "name": "COSMOS 2251 DEB", "group": "cosmos-2251-debris", "lat": -45.51845006134121, "lon": -74.41701370701044, "alt_km": 679.3918975111137, "timestamp": "2025-12-14T09:36:23.433987+00:00", "meta": {"OBJECT_NAME": "COSMOS 2251 DEB", "OBJECT_ID": "1993-036AHQ", "EPOCH": "2025-12-12T15:17:41.757504", "MEAN_MOTION": 14.67826183, "ECCENTRICITY": 0.00390968, "INCLINATION": 74.0459, "RA_OF_ASC_NODE": 305.9213, "ARG_OF_PERICENTER": 56.8247, "MEAN_ANOMALY": 303.6662, "EPHEMERIS_TYPE": 0, "CLASSIFICATION_TYPE": "U", "NORAD_CAT_ID": 35061, "ELEMENT_SET_NO": 999, "REV_AT_EPOCH": 88573, "BSTAR": 0.0012039326, "MEAN_MOTION_DOT": 6.928e-05, "MEAN_MOTION_DDOT": 0}, "tle": {"line1": "1 35061U 93036AHQ 25346.63728886  .00006928  00000+0  12039-2 0  9995", "line2": "2 35061  74.0459 305.9213 0039096  56.8247 303.6662 14.67826183885731"}}, "geometry": {"type": "Point", "coordinates": [-74.41701370701044, -45.51845006134121]}}, {"type": "Feature", "properties": {"norad_id": 35062, "name": "COSMOS 2251 DEB", "group": "cosmos-2251-debris", "lat": 70.62517911839193, "lon": -143.99286385244162, "alt_km": 718.2173279791186, "timestamp": "2025-12-14T09:36:23.433997+00:00", "meta": {"OBJECT_NAME": "COSMOS 2251 DEB", "OBJECT_ID": "1993-036AHR", "EPOCH": "2025-12-10T15:42:45.436320", "MEAN_MOTION": 14.22906612, "ECCENTRICITY": 0.01275957, "INCLINATION": 74.0784, "RA_OF_ASC_NODE": 96.9836, "ARG_OF_PERICENTER": 97.3041, "MEAN_ANOMALY": 264.2628, "EPHEMERIS_TYPE": 0, "CLASSIFICATION_TYPE": "U", "NORAD_CAT_ID": 35062, "ELEMENT_SET_NO": 999, "REV_AT_EPOCH": 85469, "BSTAR": 0.0028656551, "MEAN_MOTION_DOT": 6.986e-05, "MEAN_MOTION_DDOT": 0}, "tle": {"line1": "1 35062U 93036AHR 25344.65469255  .00006986  00000+0  28657-2 0  9995", "line2": "2 35062  74.0784  96.9836 0127595  97.3041 264.2628 14.22906612854697"}}, "geometry": {"type": "Point", "coordinates": [-143.99286385244162, 70.62517911839193]}}, {"type": "Feature", "properties": {"norad_id": 35065, "name": "COSMOS 2251 DEB", "group": "cosmos-2251-debris", "lat": -68.94834847081374, "lon": 143.12317736709258, "alt_km": 734.5863345630751, "timestamp": "2025-12-14T09:36:23.434008+00:00", "meta": {"OBJECT_NAME": "COSMOS 2251 DEB", "OBJECT_ID": "1993-036AHU", "EPOCH": "2025-12-08T21:05:49.871616", "MEAN_MOTION": 14.4570853, "ECCENTRICITY": 0.0019714, "INCLINATION": 74.0196, "RA_OF_ASC_NODE": 201.5431, "ARG_OF_PERICENTER": 327.1177, "MEAN_ANOMALY": 32.8753, "EPHEMERIS_TYPE": 0, "CLASSIFICATION_TYPE": "U", "NORAD_CAT_ID": 35065, "ELEMENT_SET_NO": 999, "REV_AT_EPOCH": 68295, "BSTAR": 0.00050947, "MEAN_MOTION_DOT": 1.782e-05, "MEAN_MOTION_DDOT": 0}, "tle": {"line1": "1 35065U 93036AHU 25342.87904944  .00001782  00000+0  50947-3 0  9996", "line2": "2 35065  74.0196 201.5431 0019714 327.1177  32.8753 14.45708530682959"}}, "geometry": {"type": "Point", "coordinates": [143.12317736709258, -68.94834847081374]}}, {"type": "Feature", "properties": {"norad_id": 35071, "name": "COSMOS 2251 DEB", "group": "cosmos-2251-debris", "lat": 47.97300321537776, "lon": -28.627573756488456, "alt_km": 529.7837339006128, "timestamp": "2025-12-14T09:36:23.434018+00:00", "meta": {"OBJECT_NAME": "COSMOS 2251 DEB", "OBJECT_ID": "1993-036AJA", "EPOCH": "2025-12-13T05:53:29.406336", "MEAN_MOTION": 15.03475439, "ECCENTRICITY": 0.00684519, "INCLINATION": 73.9322, "RA_OF_ASC_NODE": 172.3972, "ARG_OF_PERICENTER": 68.7703, "MEAN_ANOMALY": 292.0779, "EPHEMERIS_TYPE": 0, "CLASSIFICATION_TYPE": "U", "NORAD_CAT_ID": 35071, "ELEMENT_SET_NO": 999, "REV_AT_EPOCH": 67544, "BSTAR": 0.0011748935, "MEAN_MOTION_DOT": 0.00016855, "MEAN_MOTION_DDOT": 0}, "tle": {"line1": "1 35071U 93036AJA 25347.24547924  .00016855  00000+0  11749-2 0  9993", "line2": "2 35071  73.9322 172.3972 0068451  68.7703 292.0779 15.03475439675443"}}, "geometry": {"type": "Point", "coordinates": [-28.627573756488456, 47.97300321537776]}}, {"type": "Feature", "properties": {"norad_id": 35073, "name": "COSMOS 2251 DEB", "group": "cosmos-2251-debris", "lat": -37.93315150275092, "lon": 160.11420436656817, "alt_km": 576.9799489177094, "timestamp": "2025-12-14T09:36:23.434027+00:00", "meta": {"OBJECT_NAME": "COSMOS 2251 DEB", "OBJECT_ID": "1993-036AJC", "EPOCH": "2025-12-13T05:26:02.718240", "MEAN_MOTION": 15.00701135, "ECCENTRICITY": 0.00108653, "INCLINATION": 74.0021, "RA_OF_ASC_NODE": 329.5852, "ARG_OF_PERICENTER": 71.2745, "MEAN_ANOMALY": 288.962, "EPHEMERIS_TYPE": 0, "CLASSIFICATION_TYPE": "U", "NORAD_CAT_ID": 35073, "ELEMENT_SET_NO": 999, "REV_AT_EPOCH": 67486, "BSTAR": 0.0048254201, "MEAN_MOTION_DOT": 0.00061712, "MEAN_MOTION_DDOT": 0}, "tle": {"line1": "1 35073U 93036AJC 25347.22642035  .00061712  00000+0  48254-2 0  9995", "line2": "2 35073  74.0021 329.5852 0010865  71.2745 288.9620 15.00701135674863"}}, "geometry": {"type": "Point", "coordinates": [160.11420436656817, -37.93315150275092]}}, {"type": "Feature", "properties": {"norad_id": 35284, "name": "COSMOS 2251 DEB", "group": "cosmos-2251-debris", "lat": -61.533488900265596, "lon": -130.4690723991881, "alt_km": 762.159105432409, "timestamp": "2025-12-14T09:36:23.434038+00:00", "meta": {"OBJECT_NAME": "COSMOS 2251 DEB", "OBJECT_ID": "1993-036AJN", "EPOCH": "2025-12-13T11:06:52.378272", "MEAN_MOTION": 14.38319567, "ECCENTRICITY": 0.00168278, "INCLINATION": 74.0492, "RA_OF_ASC_NODE": 263.0914, "ARG_OF_PERICENTER": 339.5477, "MEAN_ANOMALY": 143.8848, "EPHEMERIS_TYPE": 0, "CLASSIFICATION_TYPE": "U", "NORAD_CAT_ID": 35284, "ELEMENT_SET_NO": 999, "REV_AT_EPOCH": 65536, "BSTAR": 0.00027227608, "MEAN_MOTION_DOT": 8.04e-06, "MEAN_MOTION_DDOT": 0}, "tle": {"line1": "1 35284U 93036AJN 25347.46310623  .00000804  00000+0  27228-3 0  9994", "line2": "2 35284  74.0492 263.0914 0016827 339.5477 143.8848 14.38319567655365"}}, "geometry": {"type": "Point", "coordinates": [-130.4690723991881, -61.533488900265596]}}]}